CALSPHERE 1             
1 00900U 64063C   23206.52670509  .00000624  00000+0  64963-3 0  9997
2 00900  90.1875  48.6160 0024288 247.6985 197.1077 13.74398388926015
CALSPHERE 2             
1 00902U 64063E   23206.58119777  .00000059  00000+0  75471-4 0  9999
2 00902  90.2015  51.9900 0020213  60.7422 358.0750 13.52756684713278
LCS 1                   
1 01361U 65034C   23206.32500047  .00000021  00000+0  16612-2 0  9993
2 01361  32.1372 168.7432 0007318 237.5616 122.4174  9.89303610105120
TEMPSAT 1               
1 01512U 65065E   23206.50389660  .00000036  00000+0  55740-4 0  9994
2 01512  89.9319 215.7547 0069197 340.3186 174.6237 13.33482168819083
CALSPHERE 4A            
1 01520U 65065H   23206.31674959  .00000109  00000+0  19331-3 0  9996
2 01520  89.9710 129.4246 0067566 206.3286 282.7267 13.35977067821440
OPS 5712 (P/L 160)      
1 02826U 67053A   23206.57785094  .00004341  00000+0  10377-2 0  9998
2 02826  69.9271  61.0567 0004950 155.2848 204.8526 14.54238070911259
OPS 5712 (P/L 153)      
1 02874U 67053H   23206.48181059  .00000041  00000+0  68354-4 0  9995
2 02874  69.9714 221.8297 0005473 147.1956 212.9491 13.96491742859097
SURCAL 150B             
1 02909U 67053J   23206.53802181  .00009040  00000+0  15005-2 0  9997
2 02909  69.9457  29.1738 0004087 185.7417 174.3682 14.70432396922715
RIGIDSPHERE 2 (LCS 4)   
1 05398U 71067E   23206.58985678  .00000853  00000+0  28681-3 0  9998
2 05398  87.6188 271.6448 0064337 133.5042 227.1529 14.34924488722059
COSMOS 2493 (SKRL-756 1)
1 39490U 13078A   23206.50685187  .00002524  00000+0  24914-3 0  9992
2 39490  82.4161 207.3608 0015937 190.9134 169.1741 14.91517935519725
COSMOS 2494 (SKRL-756 2)
1 39491U 13078B   23206.54167838  .00002911  00000+0  27572-3 0  9998
2 39491  82.4163 200.1857 0021099 164.9436 195.2417 14.93129524520353
